FENGYUN 1C DEB          
1 38813U 99025EVD 17345.34516948  .00000216  00000-0  13742-3 0  9997
2 38813  99.3566 177.3806 0006774  61.0790 299.1060 14.14687406368737
